IRIDIUM 921             
1 24873U 97034E   24280.12664691  .00114509  00000+0  19026-2 0  9997
2 24873  86.3767 232.7331 0008276 120.2143 239.9938 15.51644148492580
IRIDIUM 26              
1 24903U 97043A   24279.94540896  .00003091  00000+0  10440-2 0  9993
2 24903  86.4001 217.2725 0002294  89.8042 270.3418 14.36657440420701
IRIDIUM 22              
1 24907U 97043E   24279.87816327  .00002925  00000+0  10103-2 0  9995
2 24907  86.3996 220.6220 0002431  85.7450 274.4024 14.35523512420288
DUMMY MASS 1            
1 24925U 97048A   24279.87342226  .00002713  00000+0  30394-3 0  9992
2 24925  86.3310 252.8109 0005803 350.3569   9.7543 14.86478753467344
DUMMY MASS 2            
1 24926U 97048B   24280.19742484  .00002300  00000+0  25872-3 0  9997
2 24926  86.3309 254.2241 0007000 358.4400   1.6801 14.86234673467417
IRIDIUM 29              
1 24944U 97051A   24279.84640973  .00002955  00000+0  10116-2 0  9991
2 24944  86.3923 250.4782 0002451  83.2442 276.9034 14.35968867416761
IRIDIUM 33              
1 24946U 97051C   24279.83962890  .00001881  00000+0  65978-3 0  9991
2 24946  86.3836 249.7275 0007808 171.7631 188.3694 14.34548838416284
IRIDIUM 28              
1 24948U 97051E   24279.84649492  .00002845  00000+0  95545-3 0  9998
2 24948  86.3932 248.1370 0002293  99.4913 260.6543 14.36920557417310
